name,street_name,postal_code,block_number,longitude,latitude
7SEVEN PTE. LTD.,NORTH COAST AVENUE,756992,51,103.786436916899,1.45605972594988
ABEDIN TRADING PTE. LTD.,GEYLANG ROAD,389538,599,103.886699759329,1.31420654866153
AJMAL SUPER MART PTE. LTD.,TUAS SOUTH AVENUE 1,637285,70,103.625764663231,1.31396452002226
AJMAL TRADE MART PTE. LTD.,KRANJI ROAD,739522,12,103.759237297885,1.43069358938447
AJMAL TRADE MART PTE. LTD.,MANDAI ESTATE,729937,23,103.76056171553,1.40631204506347
AJMAL TRADING GROUP PTE. LTD.,JALAN PAPAN,619396,5,103.727480745718,1.32210836314021
AJMAL TRADING GROUP PTE. LTD.,WOODLANDS SECTOR 2,737723,2,103.809438952915,1.46152554782754
AL MARCHE PTE LTD,MARINA BOULEVARD,18987,2,103.852658565645,1.28076944309971
ALTERNATIVE SELECTION PTE. LTD.,BINJAI PARK,589831,29,103.786969223738,1.33661474902075
ANG KEN CHUA,CHOA CHU KANG AVENUE 3,680410,410,103.741520112804,1.38062798479668
ANG MO SUPERMARKET PTE LTD,PUNGGOL DRIVE,820639,639,103.916054504161,1.39946117297002
ANG MO SUPERMARKET PTE LTD,HOUGANG AVENUE 8,530642,642,103.879938988612,1.37170342503995
AP HOUSE PTE. LTD.,MARINA VIEW,18961,12,103.850795182002,1.27830730320321
ARCHANA PROVISION STORES PTE. LTD,PENJURU WALK,608538,27,103.732882480415,1.31923811377776
ARCHANA SUPERMARKET PTE. LTD.,JALAN PAPAN,619392,1,103.726722841969,1.32048426082957
AZ SUPERMART PTE. LTD.,KAKI BUKIT AVENUE 3,415920,21,103.909946665207,1.33809673913723
B & S MINI MART PTE. LTD.,GEYLANG ROAD,389349,310,103.87962231543,1.31245104539871
BALASUBRAMANIYAN KANNADASAN,KRANJI ROAD,739503,257,103.754008429832,1.43594535916514
BANGLADESH SUPER MARKET PTE. LTD.,SEMBAWANG ROAD,758498,1024,103.832526372151,1.45343693357051
BHANDARI INTERNATIONAL PTE. LTD.,WOODLANDS INDUSTRIAL PARK E5 (PART OF),757322,280,103.791095177079,1.45132505304739
BISMILLAH MINIMART PTE. LTD.,MANDAI ESTATE,729939,32,103.758094978446,1.40754324060913
BLUEWATER SEAFOOD PTE. LTD.,DEMPSEY ROAD,249672,8D,103.80938167216,1.30344597442988
CAVEMEN PTE. LTD.,JALAN DUSUN,329363,1,103.843674239785,1.32696540868721
CHD @ SOON LEE PTE. LTD.,SOON LEE ROAD,628088,51,103.699070270739,1.33212290136628
"CHEE MIN KUAN, SIMON",TANJONG KATONG ROAD,437112,342,103.896498243508,1.30373373435466
CHENNAI TRADING & SUPERMART PTE. LTD.,JALAN PAPAN,619392,1,103.726722841969,1.32048426082957
CHUA & NG PTE. LTD.,BEDOK RESERVOIR ROAD,470632,632,103.914145078086,1.33205094619271
COLD STORAGE SINGAPORE (1983) PTE LTD,TAMPINES STREET 32,529286,9,103.960042189056,1.35436493617486
COLD STORAGE SINGAPORE (1983) PTE LTD,UPPER BUKIT TIMAH ROAD,588177,144,103.776250537642,1.34239284479656
COLD STORAGE SINGAPORE (1983) PTE LTD,EASTWOOD ROAD,486442,20,103.955419467871,1.3214476908532
COLD STORAGE SINGAPORE (1983) PTE LTD,BISHAN STREET 13,570512,512,103.849881701299,1.34962234403109
COLD STORAGE SINGAPORE (1983) PTE LTD,DUNEARN ROAD,589472,896,103.783709152299,1.33667572858824
COLD STORAGE SINGAPORE (1983) PTE LTD,YISHUN AVENUE 2,769092,201,103.832979911333,1.41738336744103
COLD STORAGE SINGAPORE (1983) PTE LTD,TAMPINES CENTRAL 1,529536,10,103.94501945797,1.35431556438279
COLD STORAGE SINGAPORE (1983) PTE LTD,BUKIT TIMAH ROAD,259727,383,103.82734585139,1.31943617521461
COLD STORAGE SINGAPORE (1983) PTE LTD,HILLVIEW RISE,667979,4,103.76417292134,1.36267450256161
COLD STORAGE SINGAPORE (1983) PTE LTD,PASIR RIS STREET 21,510259,259,103.964598501334,1.36645363325574
COLD STORAGE SINGAPORE (1983) PTE LTD,SEMBAWANG ROAD,758459,604,103.824495079721,1.44176714678225
COLD STORAGE SINGAPORE (1983) PTE LTD,UPPER CHANGI ROAD,487048,430,103.946201244496,1.33177581668164
COLD STORAGE SINGAPORE (1983) PTE LTD,SENGKANG SQUARE,545078,1,103.894980035249,1.39209414927783
COLD STORAGE SINGAPORE (1983) PTE LTD,ADMIRALTY DRIVE,752468,468B,103.81411090726,1.45000861248809
COLD STORAGE SINGAPORE (1983) PTE LTD,JELAPANG ROAD,671524,524A,103.766170532015,1.38529556248789
COLD STORAGE SINGAPORE (1983) PTE LTD,TURF CLUB ROAD,287994,200,103.793133813234,1.33899462247146
COLD STORAGE SINGAPORE (1983) PTE LTD,STRAITS VIEW,18935,5,103.852844804264,1.27737236043423
COLD STORAGE SINGAPORE (1983) PTE LTD,ORCHARD ROAD,238839,68,103.845047628503,1.30074756196423
COLD STORAGE SINGAPORE (1983) PTE LTD,KIM SENG PROMENADE,237994,1,103.831757911005,1.29380236091495
COLD STORAGE SINGAPORE (1983) PTE LTD,WOODLANDS AVENUE 6,730768,768,103.798140996577,1.44562289934866
COLD STORAGE SINGAPORE (1983) PTE LTD,HOUGANG STREET 51,538719,21,103.887832026894,1.37924528806956
COLD STORAGE SINGAPORE (1983) PTE LTD,OCEAN WAY,98375,31,103.841921096861,1.24775861864545
COLD STORAGE SINGAPORE (1983) PTE LTD,ORCHARD ROAD,238859,290,103.835240311923,1.30372322367268
COLD STORAGE SINGAPORE (1983) PTE LTD,THOMSON ROAD,307591,101,103.843463185078,1.31733464253519
COLD STORAGE SINGAPORE (1983) PTE LTD,MARITIME SQUARE,99253,1,103.818625588159,1.26206336450486
COLD STORAGE SINGAPORE (1983) PTE LTD,BUKIT BATOK CENTRAL LINK,658713,1,103.749021982726,1.3501891589254
COLD STORAGE SINGAPORE (1983) PTE LTD,HOLLAND AVENUE,278967,211,103.795350440968,1.31025542171459
COLD STORAGE SINGAPORE (1983) PTE LTD,JURONG EAST STREET 21,609601,2,103.746638245311,1.33502430397913
COLD STORAGE SINGAPORE (1983) PTE LTD,WOODLANDS AVENUE 7,738344,70,103.800977588529,1.44053814947729
COLD STORAGE SINGAPORE (1983) PTE LTD,BUANGKOK CRESCENT,530982,982,103.879309100327,1.380850346979
COLD STORAGE SINGAPORE (1983) PTE LTD,PASIR RIS DRIVE 4,510440,440,103.958647646173,1.36899800601439
COLD STORAGE SINGAPORE (1983) PTE LTD,BEDOK ROAD,469560,348,103.948257061053,1.33142685592296
COLD STORAGE SINGAPORE (1983) PTE LTD,PUNGGOL CENTRAL,824622,622D,103.91053692695,1.40053114255394
COLD STORAGE SINGAPORE (1983) PTE LTD,STUDENTS WALK,639548,35,103.685418471527,1.34813378503649
COLD STORAGE SINGAPORE (1983) PTE LTD,FIRST STREET,458278,2,103.92365787344,1.31275329888806
COLD STORAGE SINGAPORE (1983) PTE LTD,ORCHARD ROAD,238843,176,103.839758898411,1.30197804716068
COLD STORAGE SINGAPORE (1983) PTE LTD,ORCHARD ROAD,238879,442,103.828164400669,1.30766861522346
COLD STORAGE SINGAPORE (1983) PTE LTD,BUKIT TIMAH ROAD,259760,501,103.814245545298,1.32257317593847
COLD STORAGE SINGAPORE (1983) PTE LTD,EDGEFIELD PLAINS,820671,671,103.911991279242,1.40566047542135
COLD STORAGE SINGAPORE (1983) PTE LTD,CHOA CHU KANG AVENUE 3,680475,475,103.73893180394,1.37805613765446
COLD STORAGE SINGAPORE (1983) PTE LTD,GEYLANG ROAD,400845,845,103.894289394701,1.3165446779962
COLD STORAGE SINGAPORE (1983) PTE LTD,ALJUNIED AVENUE 2,380118,118,103.887363072166,1.32000040915087
COLD STORAGE SINGAPORE (1983) PTE LTD,JURONG WEST STREET 61,640638,638,103.697020082225,1.34159108250934
COLD STORAGE SINGAPORE (1983) PTE LTD,FIFTH AVENUE,268802,1,103.795692359115,1.33081740177866
COLD STORAGE SINGAPORE (1983) PTE LTD,BEDOK NORTH STREET 3,460509,509,103.931091390123,1.33306648172659
COLD STORAGE SINGAPORE (1983) PTE LTD,KIM KEAT AVENUE,310260,260,103.857378075733,1.33211277384514
COLD STORAGE SINGAPORE (1983) PTE LTD,ORCHARD ROAD,238873,391A,103.83467613466,1.30242417909428
COLD STORAGE SINGAPORE (1983) PTE LTD,NORTH BRIDGE ROAD,179103,252,103.853119912535,1.29389358752931
COLD STORAGE SINGAPORE (1983) PTE LTD,CLEMENTI ROAD,129787,101,103.769369393442,1.30176130745621
COLD STORAGE SINGAPORE (1983) PTE LTD,COVE AVENUE,98537,1,103.839555012608,1.2471504063107
COLD STORAGE SINGAPORE (1983) PTE LTD,YISHUN STREET 22,760293,293,103.837605239088,1.4361142481059
COLD STORAGE SINGAPORE (1983) PTE LTD,MARINE TERRACE,440056,56,103.915376080603,1.30560570262798
COLD STORAGE SINGAPORE (1983) PTE LTD,SERANGOON CENTRAL DRIVE,550266,266,103.871472859034,1.35323163805116
COLD STORAGE SINGAPORE (1983) PTE LTD,HARBOURFRONT WALK,98585,1,103.821589250415,1.26389581950121
COLD STORAGE SINGAPORE (1983) PTE LTD,BUKIT BATOK EAST AVENUE 3,650284,284,103.757276703167,1.3466990504391
COLD STORAGE SINGAPORE (1983) PTE LTD,BANGKIT ROAD,670256,256,103.772937487064,1.37904775569569
COLD STORAGE SINGAPORE (1983) PTE LTD,UBI AVENUE 1,400306,306,103.901929745106,1.32987219697453
COLD STORAGE SINGAPORE (1983) PTE LTD,GHIM MOH ROAD,270021,21,103.788532895746,1.31008118565207
COLD STORAGE SINGAPORE (1983) PTE LTD,TELOK BLANGAH CRESCENT,90008,8,103.819341304521,1.2777953943487
COLD STORAGE SINGAPORE (1983) PTE LTD,YISHUN AVENUE 5,760102,102,103.828762985206,1.43061828496815
COLD STORAGE SINGAPORE (1983) PTE LTD,BUKIT BATOK STREET 31,650376,376,103.749579874348,1.35831704701199
COLD STORAGE SINGAPORE (1983) PTE LTD,REDHILL CLOSE,150086,86,103.818673599932,1.28692006435587
COLD STORAGE SINGAPORE (1983) PTE LTD,CLEMENCEAU AVENUE,239917,81,103.842561031003,1.29225958853816
COLD STORAGE SINGAPORE (1983) PTE LTD,SERANGOON CENTRAL,556083,23,103.871861623795,1.35067551423916
COLD STORAGE SINGAPORE (1983) PTE LTD,VISTA EXCHANGE GREEN,138617,1,103.788214538525,1.30684882667818
COLD STORAGE SINGAPORE (1983) PTE LTD,WEST COAST ROAD,127371,154,103.76528451751,1.30358269052594
COLD STORAGE SINGAPORE (1983) PTE LTD,TANJONG KATONG ROAD,437157,11,103.894480527876,1.31469214115978
COLD STORAGE SINGAPORE (1983) PTE LTD,KALLANG AVENUE,339511,12,103.864101650514,1.30974242012866
COLD STORAGE SINGAPORE (1983) PTE LTD,MARINE PARADE ROAD,449269,80,103.905113590458,1.30119131472187
COLD STORAGE SINGAPORE (1983) PTE LTD,COMPASSVALE BOW,540266,266,103.897031078181,1.38199703135061
COLD STORAGE SINGAPORE (1983) PTE LTD,VICTORIA STREET,188024,230,103.855786976518,1.30014248326866
COLD STORAGE SINGAPORE (1983) PTE LTD,JOO CHIAT ROAD,427543,291,103.902232496984,1.30982227398559
COLD STORAGE SINGAPORE (1983) PTE LTD,ANG MO KIO AVENUE 10,560525,525,103.853890711284,1.37264569542777
COLD STORAGE SINGAPORE (1983) PTE LTD,SEMBAWANG DRIVE,751406,406A,103.817249280953,1.45273623395178
COLD STORAGE SINGAPORE (1983) PTE LTD,FAJAR ROAD,670445,445,103.770768312339,1.38358044412737
COLD STORAGE SINGAPORE (1983) PTE LTD,PASIR RIS STREET 71,510776,776,103.937088181626,1.37454928671824
COLD STORAGE SINGAPORE (1983) PTE LTD,ENGGOR STREET,79717,16,103.8443195557,1.27461794177448
COLD STORAGE SINGAPORE (1983) PTE LTD,MARINA BOULEVARD,18984,8A,103.853349301911,1.28022768611886
COLD STORAGE SINGAPORE (1983) PTE LTD,YISHUN AVENUE 11,760418,418,103.847249793129,1.42489931802522
COLD STORAGE SINGAPORE (1983) PTE LTD,TANGLIN ROAD,247933,163,103.823852799187,1.30484344487426
COLD STORAGE SINGAPORE (1983) PTE LTD,WOODLANDS STREET 82,730883,883,103.79054802026,1.44275332239793
COLD STORAGE SINGAPORE (1983) PTE LTD,ANG MO KIO AVENUE 4,560161,161,103.839489194952,1.374239506746
COLD STORAGE SINGAPORE (1983) PTE LTD,JALAN LOKAM,537846,2,103.882695852672,1.34560771369918
COLD STORAGE SINGAPORE (1983) PTE LTD,THOMSON ROAD,307683,238,103.843656771807,1.32021101601675
COLD STORAGE SINGAPORE (1983) PTE LTD,STADIUM WALK,397693,5,103.876152670397,1.30222178109552
COLD STORAGE SINGAPORE (1983) PTE LTD,SUNSET WAY,597071,41,103.767260053848,1.32325040085144
COLD STORAGE SINGAPORE (1983) PTE LTD,CLAYMORE DRIVE,229594,1,103.829352202761,1.30756237263162
COLD STORAGE SINGAPORE (1983) PTE LTD,DUNEARN ROAD,309426,36A,103.83781497569,1.31617742511297
COLD STORAGE SINGAPORE (1983) PTE LTD,BAYFRONT AVENUE,18972,2,103.858505749339,1.28355872540744
COLD STORAGE SINGAPORE (1983) PTE LTD,BEDOK RESERVOIR ROAD,470631,631,103.914941831132,1.3329587272309
COLD STORAGE SINGAPORE (1983) PTE LTD,HOUGANG AVENUE 8,530683,683,103.886365538231,1.3733212172841
COLD STORAGE SINGAPORE (1983) PTE LTD,ANG MO KIO STREET 31,563316,316B,103.847677043508,1.36462540011123
COLD STORAGE SINGAPORE (1983) PTE LTD,HOLLAND ROAD,278628,293,103.785840623813,1.31756196835644
COLD STORAGE SINGAPORE (1983) PTE LTD,TEMASEK BOULEVARD,38983,3,103.857675501543,1.29487905112125
COLD STORAGE SINGAPORE (1983) PTE LTD,JALAN MEMBINA,161026,26,103.825595755974,1.28263437748971
COLD STORAGE SINGAPORE (1983) PTE LTD,EAST COAST ROAD,428802,112,103.905014934935,1.30523472024853
COLD STORAGE SINGAPORE (1983) PTE LTD,JURONG WEST STREET 41,640492,492,103.724598702353,1.35011243012885
COLD STORAGE SINGAPORE (1983) PTE LTD,PAYA LEBAR ROAD,409051,60,103.892550605327,1.31867575851382
COLD STORAGE SINGAPORE (1983) PTE LTD,ALEXANDRA ROAD,159953,370,103.805009970565,1.2886146910195
COLD STORAGE SINGAPORE (1983) PTE LTD,YISHUN AVENUE 2,769098,930,103.835776497586,1.42969848150358
COLD STORAGE SINGAPORE (1983) PTE LTD,HOUGANG STREET 21,530205,205,103.885079928732,1.35949663830554
COLD STORAGE SINGAPORE (1983) PTE LTD,TAMPINES NORTH DRIVE 2,528765,21,103.931999895836,1.37210169537313
COLD STORAGE SINGAPORE (1983) PTE LTD,UPPER BUKIT TIMAH ROAD,678077,464,103.76754238699,1.36012370572957
COLD STORAGE SINGAPORE (1983) PTE LTD,WOODLANDS SQUARE,738099,1,103.785688733844,1.43600783793646
COLD STORAGE SINGAPORE (1983) PTE LTD,FUSIONOPOLIS WAY,138632,1,103.787404060028,1.29929406658312
COLD STORAGE SINGAPORE (1983) PTE LTD,TAMPINES STREET 81,520829,829,103.934912522809,1.34922418771454
COLD STORAGE SINGAPORE (1983) PTE LTD,YISHUN STREET 22,760291,291,103.836723882475,1.43576080071655
COLD STORAGE SINGAPORE (1983) PTE LTD,GREENWOOD AVENUE,289215,20,103.806809259373,1.3314914715562
COLD STORAGE SINGAPORE (1983) PTE LTD,WOODLANDS DRIVE 44,730548,548,103.793416332651,1.43084006633623
COLD STORAGE SINGAPORE (1983) PTE LTD,LORONG 4 TOA PAYOH,310181,181,103.8509778648,1.33362232032979
COLD STORAGE SINGAPORE (1983) PTE LTD,SELETAR ROAD,807011,1,103.869135979297,1.38739537368097
CP MANAGEMENT SERVICES PRIVATE LIMITED,TANAH MERAH COAST ROAD,498820,80,104.003578458884,1.32674394478206
CULINA PTE LTD,DEMPSEY ROAD,247696,8,103.809526142547,1.30417511894087
CUTECH GREEN VENTURES PTE. LTD.,WOODLANDS INDUSTRIAL PARK E1,757733,10,103.795682402301,1.45334362223108
D-RON INVESTMENTS PTE. LTD.,SELETAR NORTH LINK,797601,2,103.896018766281,1.41690780081275
DE ESPERTO MINIMART PTE. LTD.,WOODLANDS INDUSTRIAL PARK E7,757178,190,103.797853420673,1.45122063631724
EN FROZEN PTE LTD,GEYLANG SERAI,402001,1,103.89797741752,1.31672515166437
FISHOP PTE. LTD.,ALEXANDRA ROAD,159953,370,103.805009970565,1.2886146910195
FOODIE MARKET PLACE PTE. LTD.,OUTRAM ROAD,169038,225,103.835371310094,1.28345077313013
FOODIE MARKET PLACE PTE. LTD.,TANJONG KATONG ROAD,437096,313,103.89614964274,1.30608636797175
FORTUNE SUPERMARKET PTE. LTD.,SEMBAWANG DRIVE,750463,463,103.814540291548,1.45551208276585
FORTUNE SUPERMARKET PTE. LTD.,WOODLANDS CRESCENT,730780,780,103.801057153449,1.44834154204666
FOUR SEASONS ORGANIC MARKET PTE. LTD.,MARINE PARADE ROAD,449269,80,103.905113590458,1.30119131472187
G8 MART PTE. LTD.,ANG MO KIO AVENUE 10,560421,421,103.852966963093,1.36538421638439
GOWRI'S GLOBAL MARKETING PTE. LTD.,MANDAI ROAD,729760,460,103.76839596811,1.41072219413685
GOWRI'S GLOBAL MARKETING PTE. LTD.,UPPER JURONG ROAD,638368,555,103.677129986961,1.32888600553213
GURU'S MARKETING PTE. LTD.,PENJURU WALK,608538,27,103.732882480415,1.31923811377776
GURU'S MARKETING PTE. LTD.,JALAN PAPAN,619392,1,103.726722841969,1.32048426082957
GW TRADER PTE. LTD.,SELETAR NORTH LINK,797455,8,103.896447890319,1.41833137911794
HAO MART PTE. LTD.,PUNGGOL EAST,820658,658,103.919352755684,1.39990420413757
HAO MART PTE. LTD.,POTONG PASIR AVENUE 1,350120,120,103.863387984978,1.33545352733956
HAO MART PTE. LTD.,BAYSHORE ROAD,469979,54,103.936894516324,1.31179544978998
HAO MART PTE. LTD.,CANBERRA LINK,750505,505,103.822534722305,1.45026201712259
HAO MART PTE. LTD.,LORONG 11 GEYLANG,388724,32,103.877004750675,1.31346903905925
HAO MART PTE. LTD.,BISHAN STREET 23,570222,222,103.848208491053,1.35803524250899
HAO MART PTE. LTD.,SIGLAP ROAD,448912,15,103.923769733617,1.30706067505236
HAO MART PTE. LTD.,JALAN TENTERAM,321017,17,103.859812582011,1.3282116947432
HAO MART PTE. LTD.,BEDOK NORTH STREET 3,460537,537,103.924236464013,1.33177301702605
HAO MART PTE. LTD.,GEYLANG ROAD,389407,448/450,103.883646674404,1.31317509715873
HAO MART PTE. LTD.,YISHUN RING ROAD,760239,239,103.839685380422,1.43359514246154
HAO MART PTE. LTD.,PETIR ROAD,670205,205,103.773924087036,1.3734302528997
HAO MART PTE. LTD.,WHAMPOA DRIVE,320074,74,103.857752875465,1.32471580637604
HAO MART PTE. LTD.,BEDOK SOUTH AVENUE 3,460069,69,103.94363236217,1.31935027280391
HAO MART PTE. LTD.,JALAN BUKIT MERAH,160146,146,103.830811469037,1.27784876908556
HAO MART PTE. LTD.,JALAN KURAS,577729,16,103.829630867108,1.3730794666261
HAO MART PTE. LTD.,TAMPINES STREET 45,521487,487B,103.958247655538,1.3599856700583
HONESTBEE PTE. LTD.,BOON LEAT TERRACE,119866,34,103.797187338711,1.27604519475402
HONG HENG SENG,BANDA STREET,50005,5,103.843437329467,1.2811973776484
HUBER'S PTE. LTD.,DEMPSEY ROAD,249679,22,103.810185824202,1.30679240718754
I-TEC SUPERMART PTE LTD,GEYLANG ROAD,389456,498/500,103.885153154008,1.31328861546158
IROHA INTERNATIONAL PTE. LTD.,ORCHARD ROAD,238839,68,103.845047628503,1.30074756196423
IROHA INTERNATIONAL PTE. LTD.,NEW BRIDGE ROAD,59413,133,103.844697090786,1.28499883856532
ISETAN (SINGAPORE) LIMITED?,ORCHARD ROAD,238868,350,103.831507328438,1.3058097922131
ISETAN (SINGAPORE) LIMITED?,GATEWAY DRIVE,608532,3,103.74258601505,1.33402529468935
ISYMI PTE LTD,JALAN PELIKAT,537643,183,103.887857189653,1.35530903339479
"JEWISH WELFARE BOARD, SINGAPORE, THE",WATERLOO STREET,187950,24,103.850599507143,1.29827328917638
JMD RETAIL PTE. LTD.,TANJONG KATONG ROAD,437106,330,103.896327021939,1.3041644719774
JSJ CORPORATION PTE. LTD.,TANAH MERAH COAST ROAD,498720,31A,103.985869406123,1.31845201086353
KADER HASNA MARICAN,KIAN TECK LANE,627851,17,103.695248113879,1.33314577537318
KAI SOON SUPERMARKET PTE. LTD.,YISHUN RING ROAD,760780,780,103.832882666076,1.42213865028433
KAVI TRADERS PTE. LTD.,TUAS SOUTH AVENUE 1,639926,69R,103.627916988491,1.31332235103777
KEK HONG HENG,PENJURU WALK,608537,23,103.731948910121,1.31800981292651
KINGSMART PTE. LTD.,PENJURU PLACE,608557,30,103.732527150838,1.31621042313668
L M MEAT PTE. LTD.,SINARAN DRIVE,307506,10,103.843892126913,1.32042967863542
L M MEAT PTE. LTD.,CHAI CHEE ROAD,469000,750,103.922102964585,1.3236517309902
L M MEAT PTE. LTD.,CHANGI BUSINESS PARK CENTRAL 1,486038,5,103.962389306789,1.3343251542009
L M MEAT PTE. LTD.,WEST COAST ROAD,127371,154,103.76528451751,1.30358269052594
LABIBA ENTERPRISE PTE. LTD.,JALAN KAYU,799473,249,103.872851581637,1.39657415558799
LAMIAH ENTERPRISE PTE. LTD.,TECH PARK CRESCENT,638127,5,103.630340087983,1.31146784739883
LAURELS FOODS SUPPLIERS PTE LTD,PANDAN VALLEY,597626,2,103.778972465008,1.32044171174546
LI LI CHENG SUPERMARKET (PUNGGOL) PTE. LTD.,PUNGGOL PLACE,823273,273C,103.901262393433,1.40230300615945
LIM KING CHEW,HOUGANG AVENUE 3,530006,6,103.893980506642,1.36271446207954
LIN POH LING,LORONG 8 TOA PAYOH,310212,212,103.854334496723,1.34064293307986
LITTLE FARMS PTE. LTD.,WALLICH STREET,78884,7,103.845155396186,1.27672493204774
LITTLE FARMS PTE. LTD.,LORONG LIPUT,277725,3,103.795246166645,1.31064350283582
LITTLE FARMS PTE. LTD.,RIVER VALLEY ROAD,248371,491,103.826940812301,1.29301786111443
LOCH GROCER PTE. LTD.,JURONG WEST AVENUE 1,640503,503,103.717704811504,1.34995541023414
LOH NYEN YIU,BEACH ROAD,199588,5001,103.865163649373,1.30275121791614
LOTTE MART PTE. LTD.,LORONG KILAT,598139,17,103.774213263461,1.34082661486743
MAHOTA FOOD PTE. LTD.,TAMPINES CENTRAL 5,529509,2,103.943784815991,1.3523611297845
MAHOTA FOOD PTE. LTD.,FRENCH ROAD,200809,809,103.862005875543,1.30832700959572
MALAR MARKETING PTE. LTD.,TUAS SOUTH AVENUE 1,637589,69,103.627436995081,1.31335809677308
MCP FAIRMART PTE LTD,JURONG GATEWAY ROAD,600135,135,103.739371389066,1.33375343289468
MCP FAIRMART PTE LTD,BUKIT BATOK STREET 31,650371,BLK 371,103.75069463728,1.35925940699667
MCP FAIRMART PTE LTD,BEDOK NORTH STREET 4,460089,89,103.938051292004,1.33233467983413
MD SYDUR RAHMAN,TUAS SOUTH STREET 5,637555,13,103.626729263079,1.29501368647394
MEAT THE BUTCHER PTE. LTD.,BUKIT TIMAH ROAD,269716,615,103.809357938829,1.32437350966463
MEIDI-YA SINGAPORE CO (PTE) LTD,RIVER VALLEY ROAD,179030,177,103.844586298874,1.29151478613339
MM SUNDRY SHOP PTE.LTD.,WOODLANDS SECTOR 1,738252,27,103.804476738376,1.45464654784747
MOHAMAD DAMAR HULAN BIN OSMAN,CHANGI ROAD,419735,212,103.903965194579,1.31714973629572
MURUGAN TRADERS PTE LTD,TRACTOR ROAD,627970,9,103.705099705855,1.32491980413317
MUSTAFA HOLDINGS PTE LTD,SYED ALWI ROAD,207706,147,103.855701594507,1.30975274714546
NAWAS GLOBAL PTE. LTD.,TUAS SOUTH STREET 12,636947,3,103.633512282372,1.27164226263376
NG CHAI SENG,BUKIT PURMEI ROAD,90109,109,103.825310769144,1.27392940817544
NG LIAN TEE,GREENDALE AVENUE,289504,7,103.80703380493,1.33166477553301
NG TOH TET,JURONG WEST AVENUE 1,640442,442,103.719496485079,1.35151847178612
NPS IMPEX PTE. LTD,TUAS VIEW SQUARE,637640,21,103.627517906632,1.29895146739633
NTUC FAIRPRICE CO-OPERATIVE LTD,PETIR ROAD,678278,17,103.762741183479,1.37834971351323
NTUC FAIRPRICE CO-OPERATIVE LTD,WOODLANDS AVENUE 1,732570,570B,103.790454085829,1.43106395014876
NTUC FAIRPRICE CO-OPERATIVE LTD,HOLLAND DRIVE,270036,36,103.79254748678,1.30918211194726
NTUC FAIRPRICE CO-OPERATIVE LTD,CANBERRA ROAD,750511,511,103.819543348008,1.45384518800838
NTUC FAIRPRICE CO-OPERATIVE LTD,TAMPINES STREET 86,523872,872C,103.931623638518,1.35524289885319
NTUC FAIRPRICE CO-OPERATIVE LTD,PUNGGOL DRIVE,820681,681,103.913195747038,1.40287845138627
NTUC FAIRPRICE CO-OPERATIVE LTD,TAMPINES AVENUE 4,528523,51,103.939683594446,1.35349616014431
NTUC FAIRPRICE CO-OPERATIVE LTD,UPPER SERANGOON VIEW,530476,476,103.903712868236,1.3774300635181
NTUC FAIRPRICE CO-OPERATIVE LTD,PUNGGOL DRIVE,820612,612,103.908665607626,1.40461002768949
NTUC FAIRPRICE CO-OPERATIVE LTD,MAJU AVENUE,556679,1,103.865041855148,1.36516070959148
NTUC FAIRPRICE CO-OPERATIVE LTD,SOUTH WOODLANDS DRIVE,730900,900,103.78661961568,1.43507789397689
NTUC FAIRPRICE CO-OPERATIVE LTD,STIRLING ROAD,140170,170,103.803107635392,1.29090918346995
NTUC FAIRPRICE CO-OPERATIVE LTD,NEW BRIDGE ROAD,59413,133,103.844697090786,1.28499883856532
NTUC FAIRPRICE CO-OPERATIVE LTD,WOODLANDS DRIVE 71,730676,676,103.800701205041,1.43991607901426
NTUC FAIRPRICE CO-OPERATIVE LTD,GHIM MOH LINK,271029,29A,103.784598109774,1.3084928850612
NTUC FAIRPRICE CO-OPERATIVE LTD,YISHUN RING ROAD,768698,598,103.841236466066,1.41799925737436
NTUC FAIRPRICE CO-OPERATIVE LTD,BISHAN STREET 13,570510,510,103.849691986415,1.34888843913817
NTUC FAIRPRICE CO-OPERATIVE LTD,BISHAN PLACE,579837,9,103.848477626073,1.35023942729665
NTUC FAIRPRICE CO-OPERATIVE LTD,HOUGANG AVENUE 10,538766,90,103.893661619219,1.37231186456868
NTUC FAIRPRICE CO-OPERATIVE LTD,HOUGANG AVENUE 4,530682,682,103.88574886332,1.37361830003654
NTUC FAIRPRICE CO-OPERATIVE LTD,HOUGANG STREET 21,530202,202,103.884038461279,1.35757558065219
NTUC FAIRPRICE CO-OPERATIVE LTD,HOUGANG STREET 91,538692,1,103.879450260083,1.3756672808109
NTUC FAIRPRICE CO-OPERATIVE LTD,HOUGANG AVENUE 10,538767,100,103.894165384101,1.37177995742086
NTUC FAIRPRICE CO-OPERATIVE LTD,PASIR RIS CENTRAL STREET 3,518457,1,103.949715696944,1.37244980890777
NTUC FAIRPRICE CO-OPERATIVE LTD,TAMPINES CENTRAL 5,529510,4,103.944387982831,1.35267232042901
NTUC FAIRPRICE CO-OPERATIVE LTD,NORTHPOINT DRIVE,768019,1,103.836142036927,1.42799995739162
NTUC FAIRPRICE CO-OPERATIVE LTD,BEDOK RESERVOIR ROAD,470745,745,103.921774737841,1.33740471321143
NTUC FAIRPRICE CO-OPERATIVE LTD,SEMBAWANG WAY,750355,355,103.818641141782,1.44956647612199
NTUC FAIRPRICE CO-OPERATIVE LTD,PASIR RIS CLOSE,519599,1,103.953599087705,1.37714073427956
NTUC FAIRPRICE CO-OPERATIVE LTD,TELOK BLANGAH STREET 32,101078,78A,103.808934817338,1.27338252999837
NTUC FAIRPRICE CO-OPERATIVE LTD,ALEXANDRA ROAD,119963,460,103.801126955437,1.27367658025919
NTUC FAIRPRICE CO-OPERATIVE LTD,JURONG EAST CENTRAL 1,609731,2,103.740176741625,1.33326818232541
NTUC FAIRPRICE CO-OPERATIVE LTD,CLEMENTI AVENUE 2,120352,352,103.771350566042,1.31427860895568
NTUC FAIRPRICE CO-OPERATIVE LTD,JURONG WEST STREET 41,640498,498,103.72430732776,1.34833334908052
NTUC FAIRPRICE CO-OPERATIVE LTD,WEST COAST DRIVE,120502,502,103.759080943921,1.31188596098541
NTUC FAIRPRICE CO-OPERATIVE LTD,LOWER KENT RIDGE ROAD,119082,1,103.784084020187,1.29277432695785
NTUC FAIRPRICE CO-OPERATIVE LTD,BUKIT BATOK EAST AVENUE 3,650280,280,103.757044586256,1.34770147779385
NTUC FAIRPRICE CO-OPERATIVE LTD,JURONG GATEWAY ROAD,608549,50,103.743170430901,1.33320021671365
NTUC FAIRPRICE CO-OPERATIVE LTD,BUKIT BATOK WEST AVENUE 7,659003,2,103.746847123122,1.36650698092595
NTUC FAIRPRICE CO-OPERATIVE LTD,JOO KOON CIRCLE,629117,1,103.67809636872,1.32460665101076
NTUC FAIRPRICE CO-OPERATIVE LTD,CHOA CHU KANG STREET 51,680533,533,103.743099576144,1.392073879435
NTUC FAIRPRICE CO-OPERATIVE LTD,TEBAN GARDENS ROAD,600037,37,103.742651522893,1.32052027199062
NTUC FAIRPRICE CO-OPERATIVE LTD,JURONG EAST STREET 24,600249,249,103.739199499869,1.34259104167685
NTUC FAIRPRICE CO-OPERATIVE LTD,TIONG BAHRU ROAD,168732,302,103.826935081592,1.28646345680433
NTUC FAIRPRICE CO-OPERATIVE LTD,BUKIT MERAH CENTRAL,150166,166,103.817642874205,1.28311950277785
NTUC FAIRPRICE CO-OPERATIVE LTD,BALESTIER ROAD,329783,360,103.851055636335,1.32512653292631
NTUC FAIRPRICE CO-OPERATIVE LTD,ORCHID CLUB ROAD,769162,1,103.84403989942,1.41103598112316
NTUC FAIRPRICE CO-OPERATIVE LTD,ANG MO KIO AVENUE 1,560215,215,103.841624088452,1.36655829857198
NTUC FAIRPRICE CO-OPERATIVE LTD,SENJA ROAD,670628,628,103.760218439756,1.38509601466743
NTUC FAIRPRICE CO-OPERATIVE LTD,YISHUN RING ROAD,760849,849,103.835218187743,1.41698315581696
NTUC FAIRPRICE CO-OPERATIVE LTD,YISHUN AVENUE 2,769093,301,103.83499514286,1.42952522056756
NTUC FAIRPRICE CO-OPERATIVE LTD,WOODLANDS AVENUE 1,739065,30,103.781136890158,1.42919468259866
NTUC FAIRPRICE CO-OPERATIVE LTD,COMMONWEALTH AVENUE WEST,129588,3155,103.764248204763,1.31485322616185
NTUC FAIRPRICE CO-OPERATIVE LTD,YISHUN RING ROAD,760414,414,103.846595550971,1.42452848118598
NTUC FAIRPRICE CO-OPERATIVE LTD,WOODLANDS AVENUE 3,739044,71,103.774051198699,1.43262602939439
NTUC FAIRPRICE CO-OPERATIVE LTD,SEMBAWANG DRIVE,757713,30,103.819462105427,1.44822653003389
NTUC FAIRPRICE CO-OPERATIVE LTD,JELEBU ROAD,677743,1,103.763993951638,1.38054244056369
NTUC FAIRPRICE CO-OPERATIVE LTD,KILLINEY ROAD,239571,131,103.838533933775,1.29727532047679
NTUC FAIRPRICE CO-OPERATIVE LTD,TANJONG PAGAR PLAZA,81005,5,103.843006122101,1.27624052975614
NTUC FAIRPRICE CO-OPERATIVE LTD,HAVELOCK ROAD,160050,50,103.826793758818,1.28977814003505
NTUC FAIRPRICE CO-OPERATIVE LTD,WOODLANDS DRIVE 50,730888,888,103.79513640221,1.43755656449988
NTUC FAIRPRICE CO-OPERATIVE LTD,CHOA CHU KANG DRIVE,689715,61,103.747329724589,1.39712885652678
NTUC FAIRPRICE CO-OPERATIVE LTD,COMPASSVALE LINK,543277,BLK 277C,103.893607840929,1.38233698021703
NTUC FAIRPRICE CO-OPERATIVE LTD,JURONG WEST CENTRAL 3,648331,63,103.705351000578,1.33931503939035
NTUC FAIRPRICE CO-OPERATIVE LTD,EUNOS CRESCENT,400005,5,103.903266275569,1.32118979604503
NTUC FAIRPRICE CO-OPERATIVE LTD,AIRPORT BOULEVARD,819663,65,103.985169647877,1.35437073798267
NTUC FAIRPRICE CO-OPERATIVE LTD,JALAN TIGA,390041,41,103.884763855717,1.30782737247273
NTUC FAIRPRICE CO-OPERATIVE LTD,JOO CHIAT ROAD,420002,2,103.898764898642,1.31553964712804
NTUC FAIRPRICE CO-OPERATIVE LTD,PASIR RIS STREET 72,510734,734,103.936207570696,1.37976753619581
NTUC FAIRPRICE CO-OPERATIVE LTD,BISHAN STREET 24,570279,279,103.843785259758,1.35722282377111
NTUC FAIRPRICE CO-OPERATIVE LTD,SERANGOON CENTRAL,556083,23,103.871861623795,1.35067551423916
NTUC FAIRPRICE CO-OPERATIVE LTD,LENGKONG TIGA,410110,110,103.910689656957,1.32397688357175
NTUC FAIRPRICE CO-OPERATIVE LTD,UPPER THOMSON ROAD,574408,301,103.830919788426,1.35466901882051
NTUC FAIRPRICE CO-OPERATIVE LTD,RIVERVALE DRIVE,540118,118,103.901558027563,1.38493201671183
NTUC FAIRPRICE CO-OPERATIVE LTD,RIVERVALE CRESCENT,545082,11,103.90447160757,1.39219777362583
NTUC FAIRPRICE CO-OPERATIVE LTD,TAMPINES STREET 11,521107,107,103.948128932393,1.34837104824236
NTUC FAIRPRICE CO-OPERATIVE LTD,TAMPINES STREET 44,520475,475,103.953125974102,1.36032331726567
NTUC FAIRPRICE CO-OPERATIVE LTD,LORONG 4 TOA PAYOH,310192,192,103.850483008706,1.33166183429417
NTUC FAIRPRICE CO-OPERATIVE LTD,LORONG 6 TOA PAYOH,310500,500,103.847050353797,1.33296549379038
NTUC FAIRPRICE CO-OPERATIVE LTD,BUKIT TIMAH ROAD,269707,587,103.809999578549,1.32383512680832
NTUC FAIRPRICE CO-OPERATIVE LTD,BEDOK NORTH STREET 4,460089,89,103.938051292004,1.33233467983413
NTUC FAIRPRICE CO-OPERATIVE LTD,CHANGI BUSINESS PARK CENTRAL 1,486038,5,103.962389306789,1.3343251542009
NTUC FAIRPRICE CO-OPERATIVE LTD,TECK WHYE LANE,680140,140,103.75311841662,1.38003057765068
NTUC FAIRPRICE CO-OPERATIVE LTD,DOVER CRESCENT,130028,28,103.781697201377,1.30476357340306
NTUC FAIRPRICE CO-OPERATIVE LTD,DEPOT ROAD,100108,108,103.8100313205,1.28112227851946
NTUC FAIRPRICE CO-OPERATIVE LTD,EUNOS ROAD 8,408600,10,103.894731355106,1.31886941200841
NTUC FAIRPRICE CO-OPERATIVE LTD,TAI SENG STREET,539775,18,103.888762709438,1.33653867658135
NTUC FAIRPRICE CO-OPERATIVE LTD,MACPHERSON ROAD,368125,401,103.879294502591,1.33177055027825
NTUC FAIRPRICE CO-OPERATIVE LTD,GEYLANG ROAD,389551,612-620,103.888544913634,1.31414996835354
NTUC FAIRPRICE CO-OPERATIVE LTD,SIMEI STREET 6,528833,3,103.953024500232,1.34270618915228
NTUC FAIRPRICE CO-OPERATIVE LTD,POTONG PASIR AVENUE 2,358361,6,103.867036838441,1.33253590792541
NTUC FAIRPRICE CO-OPERATIVE LTD,EAST COAST ROAD,428751,30,103.902850380057,1.30385030848158
NTUC FAIRPRICE CO-OPERATIVE LTD,AIRPORT BOULEVARD,819643,60,103.988750977656,1.3551909440899
NTUC FAIRPRICE CO-OPERATIVE LTD,NEW UPPER CHANGI ROAD,461057,57,103.9415687075,1.32424554991112
NTUC FAIRPRICE CO-OPERATIVE LTD,NEW UPPER CHANGI ROAD,467360,311,103.929267657363,1.32477207902253
NTUC FAIRPRICE CO-OPERATIVE LTD,CHANGI BUSINESS PARK AVENUE 1,486018,8,103.963653907777,1.33491977399192
NTUC FAIRPRICE CO-OPERATIVE LTD,STADIUM PLACE,397628,1,103.872750707738,1.30384327849927
NTUC FAIRPRICE CO-OPERATIVE LTD,CLEMENTI AVENUE 3,120451,451,103.765476758596,1.31248299329667
NTUC FAIRPRICE CO-OPERATIVE LTD,CHOA CHU KANG NORTH 6,689578,21,103.746558069293,1.39730189954737
NTUC FAIRPRICE CO-OPERATIVE LTD,SERANGOON NORTH AVENUE 1,552152,152B,103.873035798474,1.36979940182639
NTUC FAIRPRICE CO-OPERATIVE LTD,FRENCH ROAD,200808,808,103.861311961994,1.30880609469533
NTUC FAIRPRICE CO-OPERATIVE LTD,AH HOOD ROAD,329984,20,103.846476465683,1.3270848591504
NTUC FAIRPRICE CO-OPERATIVE LTD,TRAS STREET,79027,100,103.843470740865,1.27458822422728
NTUC FAIRPRICE CO-OPERATIVE LTD,ANG MO KIO AVENUE 6,560712,712,103.847082884002,1.37140920462192
NTUC FAIRPRICE CO-OPERATIVE LTD,SCOTTS ROAD,228209,6,103.832984361905,1.30585583497044
NTUC FAIRPRICE CO-OPERATIVE LTD,SILAT AVENUE,160150,150,103.831425859726,1.2770770759001
NTUC FAIRPRICE CO-OPERATIVE LTD,SENGKANG WEST AVENUE,797653,33,103.876067662182,1.39139305725169
NTUC FAIRPRICE CO-OPERATIVE LTD,KITCHENER ROAD,208539,180,103.856487121487,1.31139349438913
NTUC FAIRPRICE CO-OPERATIVE LTD,KIM TIAN ROAD,169252,18 /20,103.829298011427,1.28480734614992
NTUC FAIRPRICE CO-OPERATIVE LTD,UPPER BOON KENG ROAD,380005,5,103.87254179955,1.31265450087908
NTUC FAIRPRICE CO-OPERATIVE LTD,CAMBRIDGE ROAD,210043,43,103.849434508531,1.31536303357228
NTUC FAIRPRICE CO-OPERATIVE LTD,ANG MO KIO AVENUE 3,569933,53,103.848399235571,1.36924890739397
NTUC FAIRPRICE CO-OPERATIVE LTD,SINARAN DRIVE,307506,10,103.843892126913,1.32042967863542
NTUC FAIRPRICE CO-OPERATIVE LTD,RIVER VALLEY ROAD,248371,491,103.826940812301,1.29301786111443
NTUC FAIRPRICE CO-OPERATIVE LTD,LORONG LIMAU,320080,80,103.855670628839,1.32379607925067
NTUC FAIRPRICE CO-OPERATIVE LTD,SENGKANG EAST AVENUE,540279,279,103.892995500981,1.38621835288115
NTUC FAIRPRICE CO-OPERATIVE LTD,LENGKOK BAHRU,159053,20,103.813766343919,1.28668027234677
NTUC FAIRPRICE CO-OPERATIVE LTD,ANG MO KIO AVENUE 10,560574,574,103.856396513475,1.3708945610762
NTUC FAIRPRICE CO-OPERATIVE LTD,TAMPINES STREET 83,521866,866A,103.934315234757,1.3554217626792
NTUC FAIRPRICE CO-OPERATIVE LTD,PUNGGOL FIELD,820168,168,103.912976438987,1.394184094795
NTUC FAIRPRICE CO-OPERATIVE LTD,TAMPINES STREET 11,521138,138,103.945344294717,1.34528144162057
NTUC FAIRPRICE CO-OPERATIVE LTD,CHOA CHU KANG AVENUE 4,689812,21,103.744950388654,1.38506836300634
NTUC FAIRPRICE CO-OPERATIVE LTD,BOON LAY PLACE,640221,221,103.712429317152,1.34634819293844
NTUC FAIRPRICE CO-OPERATIVE LTD,EAST COAST ROAD,428932,239/255,103.907988815995,1.30836165161607
NTUC FAIRPRICE CO-OPERATIVE LTD,CIRCUIT ROAD,370077,77,103.885349909653,1.32855656927862
NTUC FAIRPRICE CO-OPERATIVE LTD,EAST COAST ROAD,459125,934,103.92523453825,1.31230752821693
NTUC FAIRPRICE CO-OPERATIVE LTD,MARINE PARADE CENTRAL,449411,6,103.907112664975,1.30141955705642
NTUC FAIRPRICE CO-OPERATIVE LTD,JALAN ANAK BUKIT,588996,1,103.778560473793,1.33865677093942
NTUC FAIRPRICE CO-OPERATIVE LTD,BEDOK NORTH STREET 1,460212,212,103.931640028654,1.32594069682932
NTUC FAIRPRICE CO-OPERATIVE LTD,ALJUNIED AVENUE 2,380114,114,103.886672786663,1.32176644586798
NTUC FAIRPRICE CO-OPERATIVE LTD,LORONG 4 TOA PAYOH,310095,95,103.848993319083,1.33889072011391
NTUC FAIRPRICE CO-OPERATIVE LTD,BENDEMEER ROAD,330030,30,103.86390532629,1.31909344185792
NTUC FAIRPRICE CO-OPERATIVE LTD,SIN MING AVENUE,571410,410A,103.835445360583,1.36321586107786
NTUC FAIRPRICE CO-OPERATIVE LTD,JALAN BUKIT MERAH,150001,1,103.80824240096,1.28645354374901
NTUC FAIRPRICE CO-OPERATIVE LTD,KALLANG BAHRU,330071,71,103.870389995935,1.32099294995032
NTUC FAIRPRICE CO-OPERATIVE LTD,JALAN KAYU,791447,447A,103.872490556756,1.3921382839313
NTUC FAIRPRICE CO-OPERATIVE LTD,DAWSON ROAD,142057,57,103.810958960395,1.29270339832466
NTUC FAIRPRICE CO-OPERATIVE LTD,BUKIT BATOK WEST AVENUE 8,650166,166,103.74280788296,1.34716235926513
NTUC FAIRPRICE CO-OPERATIVE LTD,YUNG SHENG ROAD,610399,399,103.720268020639,1.33504201869474
NTUC FAIRPRICE CO-OPERATIVE LTD,JURONG EAST STREET 31,600345,BLK 345,103.731219147651,1.34551209957725
NTUC FAIRPRICE CO-OPERATIVE LTD,YUNG KUANG ROAD,610063,63/66,103.722452888408,1.33205937638185
NTUC FAIRPRICE CO-OPERATIVE LTD,JURONG WEST CENTRAL 2,648886,1,103.706460886826,1.33983014805774
NTUC FAIRPRICE CO-OPERATIVE LTD,JURONG EAST STREET 13,600135,135,103.739371389066,1.33375343289468
NTUC FAIRPRICE CO-OPERATIVE LTD,BUKIT BATOK CENTRAL,659958,10,103.74933452639,1.3487108014327
OH BENG GUAN,BUKIT BATOK WEST AVENUE 5,651395,395A,103.751896006132,1.36393821477866
ONE EIGHT SHOP PTE. LTD.,JURONG EAST STREET 13,600104,104,103.737623311665,1.33658465251142
PAN PACIFIC INTERNATIONAL HOLDINGS PTE. LTD.,KITCHENER ROAD,208539,180,103.856487121487,1.31139349438913
PAN PACIFIC INTERNATIONAL HOLDINGS PTE. LTD.,ORCHARD ROAD,238896,181,103.839434735426,1.3008389164153
PAN PACIFIC INTERNATIONAL HOLDINGS PTE. LTD.,TRAS STREET,79027,100,103.843470740865,1.27458822422728
PHAN NEE INVESTMENTS (S) PTE LTD,YISHUN AVENUE 7,768930,2C,103.837963232741,1.44518329012928
PHAN NEE INVESTMENTS (S) PTE LTD,OLD CHOA CHU KANG ROAD,698924,500,103.718403752899,1.37761083897742
PHAN NEE INVESTMENTS (S) PTE LTD,OLD CHOA CHU KANG ROAD,698928,500,103.720857418902,1.37193280471552
PHAN NEE TRADING LLP,YISHUN AVENUE 7,768929,2B,103.839030200378,1.4443412952404
PHAN NEE TRADING LLP,ADMIRALTY ROAD WEST,757444,49,103.818111275279,1.46138853767873
PHANG NEE ENTERPRISE PTE. LTD.,JALAN PAPAN,619415,2D,103.729751339131,1.32078791294416
POPULAR SUPERMARKET PTE LTD,TUAS SOUTH STREET 13,636937,12,103.634163915466,1.27030978388319
PRB TRADING PTE. LTD.,GEYLANG ROAD,389290,230,103.877389270673,1.31208877136103
PRIME SUPERMARKET (1996) PTE LTD,YISHUN STREET 72,760761,761,103.83325904408,1.42539842085522
PRIME SUPERMARKET (1996) PTE LTD,SERANGOON NORTH AVENUE 3,552542,542B,103.871416983339,1.37368392879254
PRIME SUPERMARKET (1996) PTE LTD,TECK WHYE LANE,680142,142,103.751954418498,1.38079049151902
PRIME SUPERMARKET (1996) PTE LTD,HOUGANG STREET 11,531159,159A,103.879314599056,1.35209059885687
PRIME SUPERMARKET (1996) PTE LTD,BEDOK SOUTH ROAD,460018,18,103.934734229515,1.3206250589085
PRIME SUPERMARKET (1996) PTE LTD,NANYANG AVENUE,639798,50,103.6788181373,1.3467646554181
PRIME SUPERMARKET (1996) PTE LTD,CHOA CHU KANG AVENUE 1,680253,253,103.744383226701,1.37743962647899
PRIME SUPERMARKET (1996) PTE LTD,HOUGANG AVENUE 1,530106,106,103.890680794853,1.35370296933733
PRIME SUPERMARKET LIMITED,COMPASSVALE STREET,540263,263,103.896042269736,1.39484815593414
PRIME SUPERMARKET LIMITED,BUKIT BATOK STREET 11,650159,159,103.742708640389,1.34857536716152
PRIME SUPERMARKET LIMITED,JURONG WEST STREET 91,640962,962,103.691483120672,1.34201783432949
PRIME SUPERMARKET LIMITED,PUNGGOL FIELD,820108,108,103.908850766913,1.39652617622188
PRIME SUPERMARKET LIMITED,KING GEORGE'S AVENUE,200803,803,103.860912787999,1.3083652684116
PRIME SUPERMARKET LIMITED,WOODLANDS AVENUE 6,730678,678,103.801293114431,1.43998365427584
PRIME SUPERMARKET LIMITED,CHAI CHEE ROAD,461025,25A,103.924149642486,1.32328960172887
PRIME SUPERMARKET LIMITED,JURONG WEST STREET 75,640763,763,103.698292007732,1.34872643268225
PRIME SUPERMARKET LIMITED,TAMPINES STREET 81,520823,823,103.934010241001,1.34873284070164
PRIME SUPERMARKET LIMITED,UPPER ALJUNIED LANE,360001,1,103.87874621482,1.33429241375195
PRIME SUPERMARKET LIMITED,BUKIT BATOK STREET 31,650373,373,103.750365807136,1.35894636653359
RAW MARKET PTE. LTD.,PASIR RIS LINK,518180,11,103.960839727952,1.37558830763911
ROSWELL ENTERPRISE PTE LTD,GREENWOOD AVENUE,289236,34,103.806492419384,1.33183240808538
SADIA MINIMART PTE LTD,MANDAI ESTATE,729908,11,103.759406170784,1.40852996570468
SADIA SUPERMARKET & TRADING (S) PTE. LTD.,TUAS SOUTH STREET 13,636937,12,103.634163915466,1.27030978388319
SADIA SUPERMARKET & TRADING (S) PTE. LTD.,TECH PARK CRESCENT,638118,14,103.630190017208,1.31069428534009
SARATHI STORES PTE LTD,UPPER PAYA LEBAR ROAD,534821,91,103.887004168998,1.33748492133075
SEOUL BUTCHERY PTE. LTD.,YUK TONG AVENUE,596318,13,103.774632799754,1.34207496300068
SF (313) PTE. LTD.,TEMASEK BOULEVARD,38983,3,103.857675501543,1.29487905112125
SHAFEN SUPERMARKET & TRADING (S) PTE. LTD.,TOH GUAN ROAD EAST,608596,18,103.751807387865,1.33641798055282
SHAHUL HAMEED S/O ABDUSALAM,TAMPINES STREET 22,520280,280,103.951702778283,1.34753518989402
SHENG SIONG SUPERMARKET PTE LTD,SERANGOON NORTH AVENUE 5,554913,19,103.871996419079,1.37563500165175
SHENG SIONG SUPERMARKET PTE LTD,ANG MO KIO AVENUE 3,560122,122,103.843413241014,1.3701886043625
SHENG SIONG SUPERMARKET PTE LTD,UPPER THOMSON ROAD,574424,200,103.836053654084,1.35184498235634
SHENG SIONG SUPERMARKET PTE LTD,SUMANG LINK,821312,312A,103.900371678954,1.41081926280608
SHENG SIONG SUPERMARKET PTE LTD,BUKIT BATOK WEST AVENUE 8,650440,440,103.739303106346,1.35572307607651
SHENG SIONG SUPERMARKET PTE LTD,TAMPINES CENTRAL 1,520506,506,103.945912189651,1.35590218547803
SHENG SIONG SUPERMARKET PTE LTD,YISHUN STREET 81,760845,845,103.835000770936,1.41601879836322
SHENG SIONG SUPERMARKET PTE LTD,JURONG WEST STREET 42,640544,544,103.715759509791,1.3523935762758
SHENG SIONG SUPERMARKET PTE LTD,GEYLANG ROAD,389344,301,103.878641503568,1.3127205532191
SHENG SIONG SUPERMARKET PTE LTD,UPPER BOON KENG ROAD,380011,11,103.870914035563,1.31423937057047
SHENG SIONG SUPERMARKET PTE LTD,WOODLANDS INDUSTRIAL PARK E7,757177,200,103.796846522878,1.45074972989745
SHENG SIONG SUPERMARKET PTE LTD,TECK WHYE LANE,680018,18,103.754071407342,1.37829768231985
SHENG SIONG SUPERMARKET PTE LTD,BUKIT BATOK WEST AVENUE 6,650451,451,103.743948448003,1.35303824733614
SHENG SIONG SUPERMARKET PTE LTD,YISHUN AVENUE 4,760675,675,103.843558892177,1.42015550315781
SHENG SIONG SUPERMARKET PTE LTD,PENJURU WALK,608538,27,103.732882480415,1.31923811377776
SHENG SIONG SUPERMARKET PTE LTD,PASIR RIS STREET 51,514527,527D,103.947922430563,1.36968624846978
SHENG SIONG SUPERMARKET PTE LTD,CHIN SWEE ROAD,160052,52,103.841580116173,1.28708278767219
SHENG SIONG SUPERMARKET PTE LTD,TEBAN GARDENS ROAD,600061,61,103.738292804658,1.32213636288701
SHENG SIONG SUPERMARKET PTE LTD,CLEMENTI AVENUE 2,120352,352,103.771350566042,1.31427860895568
SHENG SIONG SUPERMARKET PTE LTD,WOODLANDS RISE,735785,785E,103.80548757912,1.44680413155135
SHENG SIONG SUPERMARKET PTE LTD,ANG MO KIO DRIVE,567720,2,103.856411982148,1.3778920308286
SHENG SIONG SUPERMARKET PTE LTD,SEGAR ROAD,670547,547,103.769575387874,1.3882402152635
SHENG SIONG SUPERMARKET PTE LTD,ANG MO KIO AVENUE 3,560233,233,103.83674063794,1.36754924783084
SHENG SIONG SUPERMARKET PTE LTD,PASIR RIS STREET 21,510258,258,103.964617780128,1.36700053512078
SHENG SIONG SUPERMARKET PTE LTD,YISHUN CENTRAL 1,760925,925,103.837125285904,1.42750547876461
SHENG SIONG SUPERMARKET PTE LTD,WOODLANDS STREET 31,730301,301,103.773515667645,1.43150526868815
SHENG SIONG SUPERMARKET PTE LTD,TANGLIN HALT ROAD,141088,88,103.798021747973,1.30203802909961
SHENG SIONG SUPERMARKET PTE LTD,BEDOK RESERVOIR ROAD,471739,739A,103.923303938599,1.33824202544731
SHENG SIONG SUPERMARKET PTE LTD,CIRCUIT ROAD,372018,18B,103.888248444761,1.32918105553869
SHENG SIONG SUPERMARKET PTE LTD,BUKIT BATOK WEST AVENUE 8,651154,154A,103.743698115504,1.34737179952411
SHENG SIONG SUPERMARKET PTE LTD,YUAN CHING ROAD,618642,3,103.725221546037,1.32546808409855
SHENG SIONG SUPERMARKET PTE LTD,MCNAIR ROAD,321108,108,103.859382727107,1.32161904109972
SHENG SIONG SUPERMARKET PTE LTD,BEDOK NORTH ROAD,460115,115,103.936865411478,1.33143368800346
SHENG SIONG SUPERMARKET PTE LTD,YISHUN AVENUE 9,768897,18,103.84160082548,1.43303198083989
SHENG SIONG SUPERMARKET PTE LTD,PUNGGOL CENTRAL,820301,301,103.906138013326,1.40371939366127
SHENG SIONG SUPERMARKET PTE LTD,BEDOK NORTH STREET 3,461539,539A,103.925500600051,1.3324023017993
SHENG SIONG SUPERMARKET PTE LTD,EDGEDALE PLAINS,821660,660A,103.916519601442,1.40262196510476
SHENG SIONG SUPERMARKET PTE LTD,CANBERRA STREET,750105,105,103.832392856092,1.44886402051704
SHENG SIONG SUPERMARKET PTE LTD,JALAN BERSEH,209037,1,103.857010987509,1.30778510070706
SHENG SIONG SUPERMARKET PTE LTD,FERNVALE STREET,790473,473,103.881698809438,1.39779874004409
SHENG SIONG SUPERMARKET PTE LTD,WOODLANDS ROAD,677899,1,103.760041592308,1.38060511575374
SHENG SIONG SUPERMARKET PTE LTD,GHIM MOH LINK,270025,25,103.786049389035,1.30811886968959
SHENG SIONG SUPERMARKET PTE LTD,WOODLANDS STREET 12,738623,4,103.779746864012,1.43351253350403
SHENG SIONG SUPERMARKET PTE LTD,FERNVALE LINK,790417,417,103.879872489529,1.39158704139214
SHENG SIONG SUPERMARKET PTE LTD,LORONG 7 TOA PAYOH,310004,4,103.855541071679,1.33904479825353
SHENG SIONG SUPERMARKET PTE LTD,JURONG WEST AVENUE 5,649486,7,103.703415655686,1.34878489456242
SHENG SIONG SUPERMARKET PTE LTD,WOODLANDS DRIVE 16,730573,573,103.798507625993,1.43109807068463
SHENG SIONG SUPERMARKET PTE LTD,DAWSON ROAD,141085,85,103.809758594158,1.29531966854901
SHENG SIONG SUPERMARKET PTE LTD,NEW UPPER CHANGI ROAD,460209,209,103.931068836576,1.32463573239521
SHENG SIONG SUPERMARKET PTE LTD,CLEMENTI AVENUE 1,121420,420A,103.768637301316,1.30973331408822
SHENG SIONG SUPERMARKET PTE LTD,ANCHORVALE CRESCENT,540338,338,103.889653921063,1.39922856580931
SHENG SIONG SUPERMARKET PTE LTD,FAJAR ROAD,670446,446,103.771029612234,1.38400581939075
SHENG SIONG SUPERMARKET PTE LTD,CLEMENTI WEST STREET 2,120720,720,103.763750974319,1.30246409193291
SHINVA AGRO FOODS PTE. LTD.,TECH PARK CRESCENT,638121,11,103.631572325734,1.3110024025961
SHINVA AGRO FOODS PTE. LTD.,TUAS VIEW WALK 1,637734,115,103.627788892117,1.30091146604893
SIVAMANI MINIMART PTE LTD,UPPER PAYA LEBAR ROAD,534846,141,103.886109258393,1.33888230373418
SONG FISH DEALER PTE LTD,YISHUN AVENUE 2,769098,930,103.835776497586,1.42969848150358
SONG FISH DEALER PTE LTD,NEW BRIDGE ROAD,59413,133,103.844697090786,1.28499883856532
SONG FISH DEALER PTE LTD,PETIR ROAD,678278,17,103.762741183479,1.37834971351323
SONG FISH DEALER PTE LTD,JURONG GATEWAY ROAD,608549,50,103.743170430901,1.33320021671365
SONG FISH DEALER PTE LTD,TAMPINES CENTRAL 5,529509,2,103.943784815991,1.3523611297845
SONG FISH DEALER PTE LTD,CHAI CHEE ROAD,469000,750,103.922102964585,1.3236517309902
SONG FISH DEALER PTE LTD,JURONG WEST CENTRAL 2,648886,1,103.706460886826,1.33983014805774
SUN TRG & CON PTE LTD,WOODLANDS INDUSTRIAL PARK E5,757322,280,103.791095177079,1.45132505304739
SUPERNATURE PTE LTD,ORCHARD ROAD,238884,583,103.828509016301,1.30619579913532
SUZYAMEER FROZEN PTE. LTD.,TAMPINES STREET 21,524201,201D,103.95358649775,1.35226231253931
SWISS BUTCHERY (2013) PRIVATE LIMITED,GREENWOOD AVENUE,289230,30,103.806586886276,1.33176109907579
SWISS BUTCHERY PTE LTD,TANGLIN ROAD,247964,56,103.822962948156,1.30561167116125
T S J INDUSTRIAL (S) PTE. LTD.,TOH GUAN ROAD EAST,608586,48,103.75434143082,1.33683097371867
TAN CHUAN BOON,HOUGANG AVENUE 5,530309,309,103.895144898127,1.36620942758889
TAN KWEE ENG,YISHUN RING ROAD,760327,327,103.842396448241,1.43007109706807
TAN PAK NANG,UPPER ALJUNIED ROAD,367872,387,103.878841903145,1.33312323989581
TANESEI RETAILING PTE. LTD.,EAST COAST ROAD,428802,112,103.905014934935,1.30523472024853
TANESEI RETAILING PTE. LTD.,TAMPINES CENTRAL 5,529509,2,103.943784815991,1.3523611297845
TANESEI TRADING PTE. LTD.,VISTA EXCHANGE GREEN,138617,1,103.788214538525,1.30684882667818
"TANG KER AN, TIMOTHY",BEDOK SOUTH ROAD,460018,18,103.934734229515,1.3206250589085
TASTE (SINGAPORE) PRIVATE LIMITED,HOLLAND AVENUE,278997,118,103.796105205941,1.31052978656723
TEO BOBBY,CHAI CHEE AVENUE,460029,29,103.924370235887,1.32476040694715
TEO BOBBY,SERANGOON CENTRAL DRIVE,550253,253,103.870756830653,1.35367102829776
THE ALASKA GUYS PTE. LTD.,TELOK KURAU ROAD,423910,201,103.911185988113,1.31212247677014
THE BUTCHER (SINGAPORE) PTE. LTD.,JALAN MERAH SAGA,278116,44,103.796844046992,1.3119219563809
THE BUTCHER (SINGAPORE) PTE. LTD.,MARINE PARADE ROAD,449269,80,103.905113590458,1.30119131472187
THE FISHWIVES PTE. LTD.,BUKIT TIMAH ROAD,259760,501,103.814245545298,1.32257317593847
THE FOODSPREE PTE LTD,JOO CHIAT ROAD,427437,162,103.899711254654,1.31290445966393
THE QUALITYMART DEPOT PTE. LTD.,DEPOT ROAD,109684,180,103.803023763143,1.28220136427594
THE SEAFOOD MARKET PLACE (BY SONG FISH) PTE. LTD.,WOODLANDS DRIVE 71,730676,676,103.800701205041,1.43991607901426
THE SEAFOOD MARKET PLACE (BY SONG FISH) PTE. LTD.,TANJONG KATONG ROAD,437157,11,103.894480527876,1.31469214115978
THE SEAFOOD MARKET PLACE (BY SONG FISH) PTE. LTD.,PUNGGOL DRIVE,820681,681,103.913195747038,1.40287845138627
THNG SAIK MONG,CLEMENTI STREET 11,120108,108,103.770265909205,1.32212393765921
TOH GUAN MINI MART PTE LTD,TOH GUAN ROAD EAST,608568,19,103.753536116977,1.33832657868868
TUAS SOUTH MINIMART PTE. LTD.,TUAS SOUTH STREET 15,636906,6,103.636144795044,1.27067712305135
U STARS PTE. LTD.,YISHUN AVENUE 4,760507,507,103.83983039077,1.41517633772651
U STARS PTE. LTD.,ELIAS ROAD,510625,625,103.941978177656,1.37860238037503
U STARS PTE. LTD.,WOODLANDS DRIVE 73,730691,691,103.806198058319,1.44062992233001
U STARS PTE. LTD.,CHOA CHU KANG AVENUE 7,680810,810,103.746160084444,1.37405796748332
U STARS PTE. LTD.,KEAT HONG LINK,680817,817,103.749700044104,1.3775438427841
U STARS SUPERMARKET PTE. LTD.,SUMANG WALK,820218,218,103.895387026654,1.40322711960687
U STARS SUPERMARKET PTE. LTD.,CLEMENTI AVENUE 5,120345,345,103.769076732946,1.31770281913597
U STARS SUPERMARKET PTE. LTD.,ANCHORVALE STREET,540330,330,103.889246757276,1.39684979447052
U STARS SUPERMARKET PTE. LTD.,PUNGGOL WAY,820261,261,103.896823897364,1.40541353593882
U STARS SUPERMARKET PTE. LTD.,COMPASSVALE DRIVE,543215,215C,103.892787164081,1.38977025366003
U STARS SUPERMARKET PTE. LTD.,TAMPINES AVENUE 8,523878,878C,103.929363838846,1.3512641069979
V SURESH KUMAR,ADMIRALTY ROAD WEST - LODGE 1,757443,51,103.820073449022,1.45982817398421
VINAYAK TRADERS PTE. LTD.,PENJURU WALK,608538,27,103.732882480415,1.31923811377776
VINAYAK TRADERS PTE. LTD.,JALAN PAPAN,619392,1,103.726722841969,1.32048426082957
VIVA CORP SERVICES PTE. LTD.,KAKI BUKIT ROAD 3,415812,23,103.903735085122,1.33733862368542
WAN SIEW YOONG,SAGO LANE,50004,4,103.842908168065,1.28180062455801
WONS BUTCHERY PTE. LTD.,ST. MARTIN'S DRIVE,257988,1,103.824463823195,1.30570970646179
YEO HOCK HENG,ALJUNIED ROAD,389797,5,103.881877796975,1.31357605426931
YEO KENG GUAN,RIDGEWOOD CLOSE,276696,5,103.778947263616,1.31661898336453
YES SUPERMARKET PTE LTD,TAMPINES STREET 21,522201,201B,103.953009921086,1.35345315592225
YOUR GROCER PRIVATE LIMITED,JALAN BUKIT HO SWEE,160034,34,103.827081283638,1.28807688301773
YS LOGISTICS (S) PTE. LTD.,JALAN TEPONG,619336,15,103.722316838638,1.30859346145721
ZAC MEAT & POULTRY PTE LTD,FIGARO STREET,458322,1B,103.925857026336,1.31574933269594
